STARLINK-36582          
1 67599U 26018L   26054.58335648  .00206988  00000+0  13600-2 0  9996
2 67599  97.2849 119.7105 0001264  91.4395  70.2748 15.75108040  5188
STARLINK-36640          
1 67600U 26018M   26054.44719712  .00301980  00000+0  19529-2 0  9996
2 67600  97.2833 119.5183 0002076  95.2460 264.9042 15.75211445  5065
STARLINK-36635          
1 67601U 26018N   26054.58335648  .00181402  00000+0  11953-2 0  9992
2 67601  97.2857 119.7405 0001325 104.3615 127.3488 15.75114013  5082
STARLINK-36631          
1 67602U 26018P   26054.58335648  .00075473  00000+0  50352-3 0  9990
2 67602  97.2850 119.7599 0001242  90.3938 187.3451 15.75139238  5071
STARLINK-36626          
1 67603U 26018Q   26054.42178341  .00315867  00000+0  20335-2 0  9990
2 67603  97.2854 119.5558 0001817 120.6604 239.4841 15.75278184  5069
STARLINK-36605          
1 67604U 26018R   26054.43943070  .00324730  00000+0  20908-2 0  9996
2 67604  97.2844 119.5299 0002293 107.8414 252.3102 15.75250185  5061
STARLINK-36281          
1 67605U 26018S   26054.59236842  .00404624  00000+0  20057-2 0  9992
2 67605  97.2844 119.7808 0001546  28.6336 331.5017 15.80936168  5099
STARLINK-35843          
1 67606U 26018T   26054.43378303  .00280897  00000+0  18165-2 0  9996
2 67606  97.2868 119.5384 0002240  90.2638 269.8884 15.75270190  5067
STARLINK-36351          
1 67607U 26018U   26054.16590332  .00244217  00000+0  15868-2 0  9998
2 67607  97.2856 119.2911 0001355  61.4077 298.7324 15.75263202  5023
STARLINK-36411          
1 67608U 26018V   26054.14407931 -.00026419  00000+0 -13809-3 0  9997
2 67608  97.2849 119.3189 0000472 338.7837  21.3411 15.80740032  5021
STARLINK-36312          
1 67609U 26018W   26054.41790088  .00306539  00000+0  19758-2 0  9996
2 67609  97.2844 119.5609 0001950  87.7850 272.3638 15.75275526  5062
STARLINK-36387          
1 67610U 26018X   26054.14145461  .00155996  00000+0  80009-3 0  9994
2 67610  97.2840 119.3217 0001409  11.0440 349.0859 15.80831856  5020
