CCSDS_OMM_VERS = 2.0
CREATION_DATE  = 
ORIGINATOR     = 

OBJECT_NAME    = STARLINK-36582
OBJECT_ID      = 2026-018L
CENTER_NAME    = EARTH
REF_FRAME      = TEME
TIME_SYSTEM    = UTC
MEAN_ELEMENT_THEORY = SGP/SGP4

EPOCH          = 2026-02-23T14:00:01.999872
MEAN_MOTION    = 15.75108040
ECCENTRICITY   = .00012643
INCLINATION    = 97.2849
RA_OF_ASC_NODE = 119.7105
ARG_OF_PERICENTER = 91.4395
MEAN_ANOMALY   = 70.2748

EPHEMERIS_TYPE = 0
CLASSIFICATION_TYPE = U
NORAD_CAT_ID   = 67599
ELEMENT_SET_NO = 999
REV_AT_EPOCH   = 518
BSTAR          = .13600392E-2
MEAN_MOTION_DOT = .206988E-2
MEAN_MOTION_DDOT = 0

CCSDS_OMM_VERS = 2.0
CREATION_DATE  = 
ORIGINATOR     = 

OBJECT_NAME    = STARLINK-36640
OBJECT_ID      = 2026-018M
CENTER_NAME    = EARTH
REF_FRAME      = TEME
TIME_SYSTEM    = UTC
MEAN_ELEMENT_THEORY = SGP/SGP4

EPOCH          = 2026-02-23T10:43:57.831168
MEAN_MOTION    = 15.75211445
ECCENTRICITY   = .00020761
INCLINATION    = 97.2833
RA_OF_ASC_NODE = 119.5183
ARG_OF_PERICENTER = 95.2460
MEAN_ANOMALY   = 264.9042

EPHEMERIS_TYPE = 0
CLASSIFICATION_TYPE = U
NORAD_CAT_ID   = 67600
ELEMENT_SET_NO = 999
REV_AT_EPOCH   = 506
BSTAR          = .19528977E-2
MEAN_MOTION_DOT = .30198E-2
MEAN_MOTION_DDOT = 0

CCSDS_OMM_VERS = 2.0
CREATION_DATE  = 
ORIGINATOR     = 

OBJECT_NAME    = STARLINK-36635
OBJECT_ID      = 2026-018N
CENTER_NAME    = EARTH
REF_FRAME      = TEME
TIME_SYSTEM    = UTC
MEAN_ELEMENT_THEORY = SGP/SGP4

EPOCH          = 2026-02-23T14:00:01.999872
MEAN_MOTION    = 15.75114013
ECCENTRICITY   = .00013253
INCLINATION    = 97.2857
RA_OF_ASC_NODE = 119.7405
ARG_OF_PERICENTER = 104.3615
MEAN_ANOMALY   = 127.3488

EPHEMERIS_TYPE = 0
CLASSIFICATION_TYPE = U
NORAD_CAT_ID   = 67601
ELEMENT_SET_NO = 999
REV_AT_EPOCH   = 508
BSTAR          = .11953248E-2
MEAN_MOTION_DOT = .181402E-2
MEAN_MOTION_DDOT = 0

CCSDS_OMM_VERS = 2.0
CREATION_DATE  = 
ORIGINATOR     = 

OBJECT_NAME    = STARLINK-36631
OBJECT_ID      = 2026-018P
CENTER_NAME    = EARTH
REF_FRAME      = TEME
TIME_SYSTEM    = UTC
MEAN_ELEMENT_THEORY = SGP/SGP4

EPOCH          = 2026-02-23T14:00:01.999872
MEAN_MOTION    = 15.75139238
ECCENTRICITY   = .00012428
INCLINATION    = 97.2850
RA_OF_ASC_NODE = 119.7599
ARG_OF_PERICENTER = 90.3938
MEAN_ANOMALY   = 187.3451

EPHEMERIS_TYPE = 0
CLASSIFICATION_TYPE = U
NORAD_CAT_ID   = 67602
ELEMENT_SET_NO = 999
REV_AT_EPOCH   = 507
BSTAR          = .50351677E-3
MEAN_MOTION_DOT = .75473E-3
MEAN_MOTION_DDOT = 0

CCSDS_OMM_VERS = 2.0
CREATION_DATE  = 
ORIGINATOR     = 

OBJECT_NAME    = STARLINK-36626
OBJECT_ID      = 2026-018Q
CENTER_NAME    = EARTH
REF_FRAME      = TEME
TIME_SYSTEM    = UTC
MEAN_ELEMENT_THEORY = SGP/SGP4

EPOCH          = 2026-02-23T10:07:22.086624
MEAN_MOTION    = 15.75278184
ECCENTRICITY   = .00018177
INCLINATION    = 97.2854
RA_OF_ASC_NODE = 119.5558
ARG_OF_PERICENTER = 120.6604
MEAN_ANOMALY   = 239.4841

EPHEMERIS_TYPE = 0
CLASSIFICATION_TYPE = U
NORAD_CAT_ID   = 67603
ELEMENT_SET_NO = 999
REV_AT_EPOCH   = 506
BSTAR          = .20334556E-2
MEAN_MOTION_DOT = .315867E-2
MEAN_MOTION_DDOT = 0

CCSDS_OMM_VERS = 2.0
CREATION_DATE  = 
ORIGINATOR     = 

OBJECT_NAME    = STARLINK-36605
OBJECT_ID      = 2026-018R
CENTER_NAME    = EARTH
REF_FRAME      = TEME
TIME_SYSTEM    = UTC
MEAN_ELEMENT_THEORY = SGP/SGP4

EPOCH          = 2026-02-23T10:32:46.812480
MEAN_MOTION    = 15.75250185
ECCENTRICITY   = .00022931
INCLINATION    = 97.2844
RA_OF_ASC_NODE = 119.5299
ARG_OF_PERICENTER = 107.8414
MEAN_ANOMALY   = 252.3102

EPHEMERIS_TYPE = 0
CLASSIFICATION_TYPE = U
NORAD_CAT_ID   = 67604
ELEMENT_SET_NO = 999
REV_AT_EPOCH   = 506
BSTAR          = .20908067E-2
MEAN_MOTION_DOT = .32473E-2
MEAN_MOTION_DDOT = 0

CCSDS_OMM_VERS = 2.0
CREATION_DATE  = 
ORIGINATOR     = 

OBJECT_NAME    = STARLINK-36281
OBJECT_ID      = 2026-018S
CENTER_NAME    = EARTH
REF_FRAME      = TEME
TIME_SYSTEM    = UTC
MEAN_ELEMENT_THEORY = SGP/SGP4

EPOCH          = 2026-02-23T14:13:00.631488
MEAN_MOTION    = 15.80936168
ECCENTRICITY   = .00015463
INCLINATION    = 97.2844
RA_OF_ASC_NODE = 119.7808
ARG_OF_PERICENTER = 28.6336
MEAN_ANOMALY   = 331.5017

EPHEMERIS_TYPE = 0
CLASSIFICATION_TYPE = U
NORAD_CAT_ID   = 67605
ELEMENT_SET_NO = 999
REV_AT_EPOCH   = 509
BSTAR          = .20056873E-2
MEAN_MOTION_DOT = .404624E-2
MEAN_MOTION_DDOT = 0

CCSDS_OMM_VERS = 2.0
CREATION_DATE  = 
ORIGINATOR     = 

OBJECT_NAME    = STARLINK-35843
OBJECT_ID      = 2026-018T
CENTER_NAME    = EARTH
REF_FRAME      = TEME
TIME_SYSTEM    = UTC
MEAN_ELEMENT_THEORY = SGP/SGP4

EPOCH          = 2026-02-23T10:24:38.853792
MEAN_MOTION    = 15.75270190
ECCENTRICITY   = .00022403
INCLINATION    = 97.2868
RA_OF_ASC_NODE = 119.5384
ARG_OF_PERICENTER = 90.2638
MEAN_ANOMALY   = 269.8884

EPHEMERIS_TYPE = 0
CLASSIFICATION_TYPE = U
NORAD_CAT_ID   = 67606
ELEMENT_SET_NO = 999
REV_AT_EPOCH   = 506
BSTAR          = .18165219E-2
MEAN_MOTION_DOT = .280897E-2
MEAN_MOTION_DDOT = 0

CCSDS_OMM_VERS = 2.0
CREATION_DATE  = 
ORIGINATOR     = 

OBJECT_NAME    = STARLINK-36351
OBJECT_ID      = 2026-018U
CENTER_NAME    = EARTH
REF_FRAME      = TEME
TIME_SYSTEM    = UTC
MEAN_ELEMENT_THEORY = SGP/SGP4

EPOCH          = 2026-02-23T03:58:54.046848
MEAN_MOTION    = 15.75263202
ECCENTRICITY   = .00013551
INCLINATION    = 97.2856
RA_OF_ASC_NODE = 119.2911
ARG_OF_PERICENTER = 61.4077
MEAN_ANOMALY   = 298.7324

EPHEMERIS_TYPE = 0
CLASSIFICATION_TYPE = U
NORAD_CAT_ID   = 67607
ELEMENT_SET_NO = 999
REV_AT_EPOCH   = 502
BSTAR          = .15867965E-2
MEAN_MOTION_DOT = .244217E-2
MEAN_MOTION_DDOT = 0

CCSDS_OMM_VERS = 2.0
CREATION_DATE  = 
ORIGINATOR     = 

OBJECT_NAME    = STARLINK-36411
OBJECT_ID      = 2026-018V
CENTER_NAME    = EARTH
REF_FRAME      = TEME
TIME_SYSTEM    = UTC
MEAN_ELEMENT_THEORY = SGP/SGP4

EPOCH          = 2026-02-23T03:27:28.452384
MEAN_MOTION    = 15.80740032
ECCENTRICITY   = .0000472
INCLINATION    = 97.2849
RA_OF_ASC_NODE = 119.3189
ARG_OF_PERICENTER = 338.7837
MEAN_ANOMALY   = 21.3411

EPHEMERIS_TYPE = 0
CLASSIFICATION_TYPE = U
NORAD_CAT_ID   = 67608
ELEMENT_SET_NO = 999
REV_AT_EPOCH   = 502
BSTAR          = -.13809E-3
MEAN_MOTION_DOT = -.26419E-3
MEAN_MOTION_DDOT = 0

CCSDS_OMM_VERS = 2.0
CREATION_DATE  = 
ORIGINATOR     = 

OBJECT_NAME    = STARLINK-36312
OBJECT_ID      = 2026-018W
CENTER_NAME    = EARTH
REF_FRAME      = TEME
TIME_SYSTEM    = UTC
MEAN_ELEMENT_THEORY = SGP/SGP4

EPOCH          = 2026-02-23T10:01:46.636032
MEAN_MOTION    = 15.75275526
ECCENTRICITY   = .00019503
INCLINATION    = 97.2844
RA_OF_ASC_NODE = 119.5609
ARG_OF_PERICENTER = 87.7850
MEAN_ANOMALY   = 272.3638

EPHEMERIS_TYPE = 0
CLASSIFICATION_TYPE = U
NORAD_CAT_ID   = 67609
ELEMENT_SET_NO = 999
REV_AT_EPOCH   = 506
BSTAR          = .19758313E-2
MEAN_MOTION_DOT = .306539E-2
MEAN_MOTION_DDOT = 0

CCSDS_OMM_VERS = 2.0
CREATION_DATE  = 
ORIGINATOR     = 

OBJECT_NAME    = STARLINK-36387
OBJECT_ID      = 2026-018X
CENTER_NAME    = EARTH
REF_FRAME      = TEME
TIME_SYSTEM    = UTC
MEAN_ELEMENT_THEORY = SGP/SGP4

EPOCH          = 2026-02-23T03:23:41.678304
MEAN_MOTION    = 15.80831856
ECCENTRICITY   = .00014097
INCLINATION    = 97.2840
RA_OF_ASC_NODE = 119.3217
ARG_OF_PERICENTER = 11.0440
MEAN_ANOMALY   = 349.0859

EPHEMERIS_TYPE = 0
CLASSIFICATION_TYPE = U
NORAD_CAT_ID   = 67610
ELEMENT_SET_NO = 999
REV_AT_EPOCH   = 502
BSTAR          = .80008524E-3
MEAN_MOTION_DOT = .155996E-2
MEAN_MOTION_DDOT = 0

